{"type": "FeatureCollection", "features": [ {"type": "Feature", "properties": {"norad_id": 36441, "name": "COSMOS 2251 DEB", "group": "cosmos-2251-debris", "lat": 52.72605235092911, "lon": 132.687515282315, "alt_km": 493.3214635917793, "timestamp": "2025-12-19T18:58:41.983268+00:00", "meta": {"OBJECT_NAME": "COSMOS 2251 DEB", "OBJECT_ID": "1993-036BAQ", "EPOCH": "2025-12-18T05:47:29.908032", "MEAN_MOTION": 15.06846048, "ECCENTRICITY": 0.01082047, "INCLINATION": 73.8354, "RA_OF_ASC_NODE": 338.3111, "ARG_OF_PERICENTER": 76.0854, "MEAN_ANOMALY": 285.2342, "EPHEMERIS_TYPE": 0, "CLASSIFICATION_TYPE": "U", "NORAD_CAT_ID": 36441, "ELEMENT_SET_NO": 999, "REV_AT_EPOCH": 87048, "BSTAR": 0.0004365334, "MEAN_MOTION_DOT": 7.404e-05, "MEAN_MOTION_DDOT": 0}, "tle": {"line1": "1 36441U 93036BAQ 25352.24131838  .00007404  00000+0  43653-3 0  9994", "line2": "2 36441  73.8354 338.3111 0108204  76.0854 285.2342 15.06846048870480"}}, "geometry": {"type": "Point", "coordinates": [132.687515282315, 52.72605235092911]}}, {"type": "Feature", "properties": {"norad_id": 36442, "name": "COSMOS 2251 DEB", "group": "cosmos-2251-debris", "lat": 6.098088421062789, "lon": -157.6184782517457, "alt_km": 472.40870033648116, "timestamp": "2025-12-19T18:58:41.983279+00:00", "meta": {"OBJECT_NAME": "COSMOS 2251 DEB", "OBJECT_ID": "1993-036BAR", "EPOCH": "2025-12-13T10:09:44.142048", "MEAN_MOTION": 15.30178674, "ECCENTRICITY": 0.00085328, "INCLINATION": 73.9496, "RA_OF_ASC_NODE": 37.7946, "ARG_OF_PERICENTER": 324.6725, "MEAN_ANOMALY": 35.3911, "EPHEMERIS_TYPE": 0, "CLASSIFICATION_TYPE": "U", "NORAD_CAT_ID": 36442, "ELEMENT_SET_NO": 999, "REV_AT_EPOCH": 85926, "BSTAR": 0.0075856442, "MEAN_MOTION_DOT": 0.00228665, "MEAN_MOTION_DDOT": 0}, "tle": {"line1": "1 36442U 93036BAR 25347.42342757  .00228665  00000+0  75856-2 0  9996", "line2": "2 36442  73.9496  37.7946 0008532 324.6725  35.3911 15.30178674859266"}}, "geometry": {"type": "Point", "coordinates": [-157.6184782517457, 6.098088421062789]}}, {"type": "Feature", "properties": {"norad_id": 36451, "name": "COSMOS 2251 DEB", "group": "cosmos-2251-debris", "lat": 66.71198083553172, "lon": 4.530438480882878, "alt_km": 780.6725962658938, "timestamp": "2025-12-19T18:58:41.983289+00:00", "meta": {"OBJECT_NAME": "COSMOS 2251 DEB", "OBJECT_ID": "1993-036BBA", "EPOCH": "2025-12-17T15:51:47.903904", "MEAN_MOTION": 14.18761243, "ECCENTRICITY": 0.01833733, "INCLINATION": 73.9538, "RA_OF_ASC_NODE": 326.3887, "ARG_OF_PERICENTER": 149.6881, "MEAN_ANOMALY": 211.5024, "EPHEMERIS_TYPE": 0, "CLASSIFICATION_TYPE": "U", "NORAD_CAT_ID": 36451, "ELEMENT_SET_NO": 999, "REV_AT_EPOCH": 84295, "BSTAR": 0.0004725236, "MEAN_MOTION_DOT": 1.135e-05, "MEAN_MOTION_DDOT": 0}, "tle": {"line1": "1 36451U 93036BBA 25351.66097111  .00001135  00000+0  47252-3 0  9999", "line2": "2 36451  73.9538 326.3887 0183373 149.6881 211.5024 14.18761243842955"}}, "geometry": {"type": "Point", "coordinates": [4.530438480882878, 66.71198083553172]}}, {"type": "Feature", "properties": {"norad_id": 36453, "name": "COSMOS 2251 DEB", "group": "cosmos-2251-debris", "lat": 65.34556325064952, "lon": -79.92562364263638, "alt_km": 691.5706219932154, "timestamp": "2025-12-19T18:58:41.983299+00:00", "meta": {"OBJECT_NAME": "COSMOS 2251 DEB", "OBJECT_ID": "1993-036BBC", "EPOCH": "2025-12-18T09:33:51.275232", "MEAN_MOTION": 14.52645427, "ECCENTRICITY": 0.00705018, "INCLINATION": 73.9232, "RA_OF_ASC_NODE": 141.6428, "ARG_OF_PERICENTER": 43.415, "MEAN_ANOMALY": 346.844, "EPHEMERIS_TYPE": 0, "CLASSIFICATION_TYPE": "U", "NORAD_CAT_ID": 36453, "ELEMENT_SET_NO": 999, "REV_AT_EPOCH": 84550, "BSTAR": 0.00066418144, "MEAN_MOTION_DOT": 2.781e-05, "MEAN_MOTION_DDOT": 0}, "tle": {"line1": "1 36453U 93036BBC 25352.39851013  .00002781  00000+0  66418-3 0  9994", "line2": "2 36453  73.9232 141.6428 0070501  43.4150 346.8440 14.52645427845506"}}, "geometry": {"type": "Point", "coordinates": [-79.92562364263638, 65.34556325064952]}}, {"type": "Feature", "properties": {"norad_id": 36459, "name": "COSMOS 2251 DEB", "group": "cosmos-2251-debris", "lat": 72.19742183287009, "lon": 50.022464306452164, "alt_km": 714.8853038051293, "timestamp": "2025-12-19T18:58:41.983309+00:00", "meta": {"OBJECT_NAME": "COSMOS 2251 DEB", "OBJECT_ID": "1993-036BBJ", "EPOCH": "2025-12-15T06:52:40.994112", "MEAN_MOTION": 14.2642949, "ECCENTRICITY": 0.01133967, "INCLINATION": 74.0484, "RA_OF_ASC_NODE": 355.1955, "ARG_OF_PERICENTER": 90.2624, "MEAN_ANOMALY": 271.1518, "EPHEMERIS_TYPE": 0, "CLASSIFICATION_TYPE": "U", "NORAD_CAT_ID": 36459, "ELEMENT_SET_NO": 999, "REV_AT_EPOCH": 7918, "BSTAR": 0.0010918207, "MEAN_MOTION_DOT": 2.788e-05, "MEAN_MOTION_DDOT": 0}, "tle": {"line1": "1 36459U 93036BBJ 25349.28658558  .00002788  00000+0  10918-2 0  9993", "line2": "2 36459  74.0484 355.1955 0113396  90.2624 271.1518 14.26429490 79186"}}, "geometry": {"type": "Point", "coordinates": [50.022464306452164, 72.19742183287009]}}, {"type": "Feature", "properties": {"norad_id": 36470, "name": "COSMOS 2251 DEB", "group": "cosmos-2251-debris", "lat": 22.396884437705765, "lon": -113.39993785399723, "alt_km": 530.9870557269778, "timestamp": "2025-12-19T18:58:41.983319+00:00", "meta": {"OBJECT_NAME": "COSMOS 2251 DEB", "OBJECT_ID": "1993-036BBV", "EPOCH": "2025-12-15T00:13:00.014016", "MEAN_MOTION": 15.07582269, "ECCENTRICITY": 0.00222568, "INCLINATION": 73.8449, "RA_OF_ASC_NODE": 249.6845, "ARG_OF_PERICENTER": 78.1368, "MEAN_ANOMALY": 282.2316, "EPHEMERIS_TYPE": 0, "CLASSIFICATION_TYPE": "U", "NORAD_CAT_ID": 36470, "ELEMENT_SET_NO": 999, "REV_AT_EPOCH": 66128, "BSTAR": 0.0018721064, "MEAN_MOTION_DOT": 0.0002872, "MEAN_MOTION_DDOT": 0}, "tle": {"line1": "1 36470U 93036BBV 25349.00902794  .00028720  00000+0  18721-2 0  9994", "line2": "2 36470  73.8449 249.6845 0022256  78.1368 282.2316 15.07582269661287"}}, "geometry": {"type": "Point", "coordinates": [-113.39993785399723, 22.396884437705765]}}, {"type": "Feature", "properties": {"norad_id": 36528, "name": "COSMOS 2251 DEB", "group": "cosmos-2251-debris", "lat": -53.26179483188822, "lon": 109.79009239988949, "alt_km": 829.0598047473841, "timestamp": "2025-12-19T18:58:41.983329+00:00", "meta": {"OBJECT_NAME": "COSMOS 2251 DEB", "OBJECT_ID": "1993-036BCN", "EPOCH": "2025-12-14T16:44:10.040352", "MEAN_MOTION": 14.30658136, "ECCENTRICITY": 0.00847741, "INCLINATION": 74.0159, "RA_OF_ASC_NODE": 141.651, "ARG_OF_PERICENTER": 190.7529, "MEAN_ANOMALY": 169.1813, "EPHEMERIS_TYPE": 0, "CLASSIFICATION_TYPE": "U", "NORAD_CAT_ID": 36528, "ELEMENT_SET_NO": 999, "REV_AT_EPOCH": 64455, "BSTAR": 0.0012089622, "MEAN_MOTION_DOT": 3.261e-05, "MEAN_MOTION_DDOT": 0}, "tle": {"line1": "1 36528U 93036BCN 25348.69733843  .00003261  00000+0  12090-2 0  9995", "line2": "2 36528  74.0159 141.6510 0084774 190.7529 169.1813 14.30658136644553"}}, "geometry": {"type": "Point", "coordinates": [109.79009239988949, -53.26179483188822]}}, {"type": "Feature", "properties": {"norad_id": 36533, "name": "COSMOS 2251 DEB", "group": "cosmos-2251-debris", "lat": -44.216336541551065, "lon": -62.231393220882, "alt_km": 700.2567061321624, "timestamp": "2025-12-19T18:58:41.983339+00:00", "meta": {"OBJECT_NAME": "COSMOS 2251 DEB", "OBJECT_ID": "1993-036BCT", "EPOCH": "2025-12-18T23:43:03.049536", "MEAN_MOTION": 14.4983849, "ECCENTRICITY": 0.00492811, "INCLINATION": 74.0116, "RA_OF_ASC_NODE": 103.0778, "ARG_OF_PERICENTER": 251.1525, "MEAN_ANOMALY": 108.4287, "EPHEMERIS_TYPE": 0, "CLASSIFICATION_TYPE": "U", "NORAD_CAT_ID": 36533, "ELEMENT_SET_NO": 999, "REV_AT_EPOCH": 84575, "BSTAR": 0.00037902129, "MEAN_MOTION_DOT": 1.457e-05, "MEAN_MOTION_DDOT": 0}, "tle": {"line1": "1 36533U 93036BCT 25352.98822974  .00001457  00000+0  37902-3 0  9997", "line2": "2 36533  74.0116 103.0778 0049281 251.1525 108.4287 14.49838490845751"}}, "geometry": {"type": "Point", "coordinates": [-62.231393220882, -44.216336541551065]}}, {"type": "Feature", "properties": {"norad_id": 36539, "name": "COSMOS 2251 DEB", "group": "cosmos-2251-debris", "lat": -48.39746686840748, "lon": 22.906667004299845, "alt_km": 712.1758531574815, "timestamp": "2025-12-19T18:58:41.983349+00:00", "meta": {"OBJECT_NAME": "COSMOS 2251 DEB", "OBJECT_ID": "1993-036BCZ", "EPOCH": "2025-12-19T02:45:37.220832", "MEAN_MOTION": 14.59339542, "ECCENTRICITY": 0.0026798, "INCLINATION": 74.0237, "RA_OF_ASC_NODE": 43.0184, "ARG_OF_PERICENTER": 187.1395, "MEAN_ANOMALY": 172.9392, "EPHEMERIS_TYPE": 0, "CLASSIFICATION_TYPE": "U", "NORAD_CAT_ID": 36539, "ELEMENT_SET_NO": 999, "REV_AT_EPOCH": 84040, "BSTAR": 0.00047028682, "MEAN_MOTION_DOT": 2.206e-05, "MEAN_MOTION_DDOT": 0}, "tle": {"line1": "1 36539U 93036BCZ 25353.11501413  .00002206  00000+0  47029-3 0  9995", "line2": "2 36539  74.0237  43.0184 0026798 187.1395 172.9392 14.59339542840401"}}, "geometry": {"type": "Point", "coordinates": [22.906667004299845, -48.39746686840748]}}, {"type": "Feature", "properties": {"norad_id": 36540, "name": "COSMOS 2251 DEB", "group": "cosmos-2251-debris", "lat": -64.75336606728425, "lon": 24.489034790111013, "alt_km": 694.5552190800536, "timestamp": "2025-12-19T18:58:41.983358+00:00", "meta": {"OBJECT_NAME": "COSMOS 2251 DEB", "OBJECT_ID": "1993-036BDA", "EPOCH": "2025-12-17T13:09:26.426592", "MEAN_MOTION": 14.58526935, "ECCENTRICITY": 0.00148115, "INCLINATION": 74.0276, "RA_OF_ASC_NODE": 171.3586, "ARG_OF_PERICENTER": 241.3475, "MEAN_ANOMALY": 118.62, "EPHEMERIS_TYPE": 0, "CLASSIFICATION_TYPE": "U", "NORAD_CAT_ID": 36540, "ELEMENT_SET_NO": 999, "REV_AT_EPOCH": 86080, "BSTAR": 0.0008456948, "MEAN_MOTION_DOT": 3.909e-05, "MEAN_MOTION_DDOT": 0}, "tle": {"line1": "1 36540U 93036BDA 25351.54822253  .00003909  00000+0  84569-3 0  9991", "line2": "2 36540  74.0276 171.3586 0014811 241.3475 118.6200 14.58526935860806"}}, "geometry": {"type": "Point", "coordinates": [24.489034790111013, -64.75336606728425]}}]}